start=new Date('2022-08-03T00:00:00.000Z').valueOf();
sats=[{"PERIOD":"95.592","ELEMENT_SET_NO":"999","RA_OF_ASC_NODE":"74.6767","REV_AT_EPOCH":"9890","MEAN_MOTION":"15.06406161","TLE_LINE1":"1 46787U 20074BA  22214.73459583  .00004655  00000-0  33115-3 0  9996","EPHEMERIS_TYPE":"0","CLASSIFICATION_TYPE":"U","FILE":"3527804","MEAN_MOTION_DDOT":"0.0000000000000","MEAN_MOTION_DOT":"0.00004655","TLE_LINE2":"2 46787  53.0545  74.6767 0001520  96.3558 263.7604 15.06406161 98901","ECCENTRICITY":"0.00015200","INCLINATION":"53.0545","NORAD_CAT_ID":"46787","RCS_SIZE":"LARGE","ARG_OF_PERICENTER":"96.3558","MEAN_ANOMALY":"263.7604","BSTAR":"0.00033115000000","OBJECT_NAME":"STARLINK-1899","LAUNCH_DATE":"2020-10-24","MEAN_ELEMENT_THEORY":"SGP4","EPOCH":"2022-08-02T17:37:49.079712","GP_ID":"209454003","DECAY_DATE":null,"APOAPSIS":"548.247","REF_FRAME":"TEME","TIME_SYSTEM":"UTC","PERIAPSIS":"546.142","OBJECT_TYPE":"PAYLOAD","SEMIMAJOR_AXIS":"6925.330","SITE":"AFETR","COUNTRY_CODE":"US","OBJECT_ID":"2020-074BA","CENTER_NAME":"EARTH"},{"CENTER_NAME":"EARTH","OBJECT_ID":"2020-074BB","COUNTRY_CODE":"US","SEMIMAJOR_AXIS":"6925.375","SITE":"AFETR","PERIAPSIS":"546.159","TIME_SYSTEM":"UTC","OBJECT_TYPE":"PAYLOAD","REF_FRAME":"TEME","APOAPSIS":"548.322","GP_ID":"209454754","DECAY_DATE":null,"OBJECT_NAME":"STARLINK-1929","MEAN_ELEMENT_THEORY":"SGP4","LAUNCH_DATE":"2020-10-24","EPOCH":"2022-08-02T20:38:16.087488","MEAN_ANOMALY":"289.0257","BSTAR":"0.00002929900000","RCS_SIZE":"LARGE","ARG_OF_PERICENTER":"71.0901","NORAD_CAT_ID":"46788","INCLINATION":"53.0541","ECCENTRICITY":"0.00015620","MEAN_MOTION_DOT":"0.00000155","TLE_LINE2":"2 46788  53.0541  74.1248 0001562  71.0901 289.0257 15.06391272 98928","CLASSIFICATION_TYPE":"U","EPHEMERIS_TYPE":"0","MEAN_MOTION_DDOT":"0.0000000000000","FILE":"3527804","TLE_LINE1":"1 46788U 20074BB  22214.85990842  .00000155  00000-0  29299-4 0  9998","MEAN_MOTION":"15.06391272","REV_AT_EPOCH":"9892","RA_OF_ASC_NODE":"74.1248","ELEMENT_SET_NO":"999","PERIOD":"95.593"},{"OBJECT_TYPE":"PAYLOAD","TIME_SYSTEM":"UTC","PERIAPSIS":"545.922","APOAPSIS":"548.489","REF_FRAME":"TEME","COUNTRY_CODE":"US","CENTER_NAME":"EARTH","OBJECT_ID":"2020-074BC","SITE":"AFETR","SEMIMAJOR_AXIS":"6925.341","EPOCH":"2022-08-02T19:35:55.580064","LAUNCH_DATE":"2020-10-24","MEAN_ELEMENT_THEORY":"SGP4","OBJECT_NAME":"STARLINK-1930","BSTAR":"0.00003548500000","MEAN_ANOMALY":"300.0273","DECAY_DATE":null,"GP_ID":"209455005","ECCENTRICITY":"0.00018530","INCLINATION":"53.0550","TLE_LINE2":"2 46789  53.0550 104.4801 0001853  60.0900 300.0273 15.06402596 98497","MEAN_MOTION_DOT":"0.00000247","ARG_OF_PERICENTER":"60.0900","RCS_SIZE":"LARGE","NORAD_CAT_ID":"46789","REV_AT_EPOCH":"9849","PERIOD":"95.592","RA_OF_ASC_NODE":"104.4801","ELEMENT_SET_NO":"999","FILE":"3527804","MEAN_MOTION_DDOT":"0.0000000000000","EPHEMERIS_TYPE":"0","CLASSIFICATION_TYPE":"U","MEAN_MOTION":"15.06402596","TLE_LINE1":"1 46789U 20074BC  22214.81661551  .00000247  00000-0  35485-4 0  9993"},{"OBJECT_NAME":"STARLINK-1931","EPOCH":"2022-08-02T18:42:49.223232","LAUNCH_DATE":"2020-10-24","MEAN_ELEMENT_THEORY":"SGP4","MEAN_ANOMALY":"277.9772","BSTAR":"0.00006529900000","GP_ID":"209455756","DECAY_DATE":null,"TIME_SYSTEM":"UTC","PERIAPSIS":"545.978","OBJECT_TYPE":"PAYLOAD","APOAPSIS":"548.437","REF_FRAME":"TEME","COUNTRY_CODE":"US","OBJECT_ID":"2020-074BD","CENTER_NAME":"EARTH","SEMIMAJOR_AXIS":"6925.343","SITE":"AFETR","REV_AT_EPOCH":"9848","PERIOD":"95.592","RA_OF_ASC_NODE":"104.4963","ELEMENT_SET_NO":"999","EPHEMERIS_TYPE":"0","CLASSIFICATION_TYPE":"U","FILE":"3527804","MEAN_MOTION_DDOT":"0.0000000000000","MEAN_MOTION":"15.06401914","TLE_LINE1":"1 46790U 20074BD  22214.77973638  .00000691  00000-0  65299-4 0  9991","ECCENTRICITY":"0.00017750","INCLINATION":"53.0560","MEAN_MOTION_DOT":"0.00000691","TLE_LINE2":"2 46790  53.0560 104.4963 0001775  82.1418 277.9772 15.06401914 98489","RCS_SIZE":"LARGE","ARG_OF_PERICENTER":"82.1418","NORAD_CAT_ID":"46790"},{"DECAY_DATE":null,"GP_ID":"209426539","OBJECT_NAME":"STARLINK-1933","MEAN_ELEMENT_THEORY":"SGP4","LAUNCH_DATE":"2020-10-24","EPOCH":"2022-08-02T09:30:49.507776","MEAN_ANOMALY":"293.2686","BSTAR":"0.00005009700000","COUNTRY_CODE":"US","CENTER_NAME":"EARTH","OBJECT_ID":"2020-074BE","SEMIMAJOR_AXIS":"6925.363","SITE":"AFETR","TIME_SYSTEM":"UTC","PERIAPSIS":"545.843","OBJECT_TYPE":"PAYLOAD","APOAPSIS":"548.613","REF_FRAME":"TEME","EPHEMERIS_TYPE":"0","CLASSIFICATION_TYPE":"U","FILE":"3527697","MEAN_MOTION_DDOT":"0.0000000000000","MEAN_MOTION":"15.06395236","TLE_LINE1":"1 46791U 20074BE  22214.39640634  .00000464  00000-0  50097-4 0  9995","REV_AT_EPOCH":"9843","PERIOD":"95.592","ELEMENT_SET_NO":"999","RA_OF_ASC_NODE":"106.2026","RCS_SIZE":"LARGE","ARG_OF_PERICENTER":"66.8514","NORAD_CAT_ID":"46791","ECCENTRICITY":"0.00020000","INCLINATION":"53.0566","MEAN_MOTION_DOT":"0.00000464","TLE_LINE2":"2 46791  53.0566 106.2026 0002000  66.8514 293.2686 15.06395236 98433"},{"DECAY_DATE":null,"GP_ID":"209427289","OBJECT_NAME":"STARLINK-1934","MEAN_ELEMENT_THEORY":"SGP4","LAUNCH_DATE":"2020-10-24","EPOCH":"2022-08-02T02:11:35.886048","MEAN_ANOMALY":"290.7310","BSTAR":"0.00015632000000","COUNTRY_CODE":"US","CENTER_NAME":"EARTH","OBJECT_ID":"2020-074BF","SEMIMAJOR_AXIS":"6925.341","SITE":"AFETR","TIME_SYSTEM":"UTC","PERIAPSIS":"546.000","OBJECT_TYPE":"PAYLOAD","APOAPSIS":"548.413","REF_FRAME":"TEME","EPHEMERIS_TYPE":"0","CLASSIFICATION_TYPE":"U","FILE":"3527697","MEAN_MOTION_DDOT":"0.0000000000000","MEAN_MOTION":"15.06402419","TLE_LINE1":"1 46792U 20074BF  22214.09138757  .00002048  00000-0  15632-3 0  9996","REV_AT_EPOCH":"9852","PERIOD":"95.592","RA_OF_ASC_NODE":"97.5603","ELEMENT_SET_NO":"999","RCS_SIZE":"LARGE","ARG_OF_PERICENTER":"69.3866","NORAD_CAT_ID":"46792","ECCENTRICITY":"0.00017420","INCLINATION":"53.0566","MEAN_MOTION_DOT":"0.00002048","TLE_LINE2":"2 46792  53.0566  97.5603 0001742  69.3866 290.7310 15.06402419 98525"},{"REV_AT_EPOCH":"9838","RA_OF_ASC_NODE":"107.4476","ELEMENT_SET_NO":"999","PERIOD":"95.592","MEAN_MOTION_DDOT":"0.0000000000000","FILE":"3527697","CLASSIFICATION_TYPE":"U","EPHEMERIS_TYPE":"0","TLE_LINE1":"1 46793U 20074BG  22214.11994627  .00000265  00000-0  36725-4 0  9992","MEAN_MOTION":"15.06405621","INCLINATION":"53.0558","ECCENTRICITY":"0.00018050","TLE_LINE2":"2 46793  53.0558 107.4476 0001805  83.3337 276.7857 15.06405621 98387","MEAN_MOTION_DOT":"0.00000265","ARG_OF_PERICENTER":"83.3337","RCS_SIZE":"LARGE","NORAD_CAT_ID":"46793","MEAN_ELEMENT_THEORY":"SGP4","LAUNCH_DATE":"2020-10-24","EPOCH":"2022-08-02T02:52:43.357728","OBJECT_NAME":"STARLINK-1941","BSTAR":"0.00003672500000","MEAN_ANOMALY":"276.7857","GP_ID":"209427541","DECAY_DATE":null,"OBJECT_TYPE":"PAYLOAD","PERIAPSIS":"545.946","TIME_SYSTEM":"UTC","REF_FRAME":"TEME","APOAPSIS":"548.446","CENTER_NAME":"EARTH","OBJECT_ID":"2020-074BG","COUNTRY_CODE":"US","SITE":"AFETR","SEMIMAJOR_AXIS":"6925.331"},{"RCS_SIZE":"LARGE","ARG_OF_PERICENTER":"64.7503","NORAD_CAT_ID":"46794","ECCENTRICITY":"0.00017100","INCLINATION":"53.0550","MEAN_MOTION_DOT":"0.00000036","TLE_LINE2":"2 46794  53.0550 106.2284 0001710  64.7503 295.3663 15.06391246 98432","EPHEMERIS_TYPE":"0","CLASSIFICATION_TYPE":"U","FILE":"3527697","MEAN_MOTION_DDOT":"0.0000000000000","MEAN_MOTION":"15.06391246","TLE_LINE1":"1 46794U 20074BH  22214.39271583  .00000036  00000-0  21343-4 0  9998","REV_AT_EPOCH":"9843","PERIOD":"95.593","RA_OF_ASC_NODE":"106.2284","ELEMENT_SET_NO":"999","COUNTRY_CODE":"US","CENTER_NAME":"EARTH","OBJECT_ID":"2020-074BH","SEMIMAJOR_AXIS":"6925.375","SITE":"AFETR","TIME_SYSTEM":"UTC","PERIAPSIS":"546.056","OBJECT_TYPE":"PAYLOAD","APOAPSIS":"548.425","REF_FRAME":"TEME","GP_ID":"209428291","DECAY_DATE":null,"OBJECT_NAME":"STARLINK-1942","LAUNCH_DATE":"2020-10-24","EPOCH":"2022-08-02T09:25:30.647712","MEAN_ELEMENT_THEORY":"SGP4","MEAN_ANOMALY":"295.3663","BSTAR":"0.00002134300000"},{"DECAY_DATE":null,"GP_ID":"209454004","LAUNCH_DATE":"2020-10-24","MEAN_ELEMENT_THEORY":"SGP4","EPOCH":"2022-08-02T18:22:55.545888","OBJECT_NAME":"STARLINK-1944","BSTAR":"-0.00011170000000","MEAN_ANOMALY":"317.4660","CENTER_NAME":"EARTH","OBJECT_ID":"2020-074BK","COUNTRY_CODE":"US","SITE":"AFETR","SEMIMAJOR_AXIS":"6925.384","OBJECT_TYPE":"PAYLOAD","PERIAPSIS":"546.537","TIME_SYSTEM":"UTC","REF_FRAME":"TEME","APOAPSIS":"547.961","MEAN_MOTION_DDOT":"0.0000000000000","FILE":"3527804","CLASSIFICATION_TYPE":"U","EPHEMERIS_TYPE":"0","TLE_LINE1":"1 46796U 20074BK  22214.76592067 -.00001944  00000-0 -11170-3 0  9991","MEAN_MOTION":"15.06388326","REV_AT_EPOCH":"9862","RA_OF_ASC_NODE":"94.5501","ELEMENT_SET_NO":"999","PERIOD":"95.593","ARG_OF_PERICENTER":"42.6409","RCS_SIZE":"LARGE","NORAD_CAT_ID":"46796","INCLINATION":"53.0536","ECCENTRICITY":"0.00010280","TLE_LINE2":"2 46796  53.0536  94.5501 0001028  42.6409 317.4660 15.06388326 98620","MEAN_MOTION_DOT":"-0.00001944"},{"TLE_LINE1":"1 46798U 20074BM  22214.46594919  .00000164  00000-0  29888-4 0  9995","MEAN_MOTION":"15.06396817","MEAN_MOTION_DDOT":"0.0000000000000","FILE":"3527697","CLASSIFICATION_TYPE":"U","EPHEMERIS_TYPE":"0","RA_OF_ASC_NODE":"120.9027","ELEMENT_SET_NO":"999","PERIOD":"95.592","REV_AT_EPOCH":"9823","NORAD_CAT_ID":"46798","ARG_OF_PERICENTER":"70.6556","RCS_SIZE":"LARGE","TLE_LINE2":"2 46798  53.0559 120.9027 0001640  70.6556 289.4610 15.06396817 98232","MEAN_MOTION_DOT":"0.00000164","INCLINATION":"53.0559","ECCENTRICITY":"0.00016400","GP_ID":"209426790","DECAY_DATE":null,"BSTAR":"0.00002988800000","MEAN_ANOMALY":"289.4610","EPOCH":"2022-08-02T11:10:58.010016","LAUNCH_DATE":"2020-10-24","MEAN_ELEMENT_THEORY":"SGP4","OBJECT_NAME":"STARLINK-1948","SITE":"AFETR","SEMIMAJOR_AXIS":"6925.358","CENTER_NAME":"EARTH","OBJECT_ID":"2020-074BM","COUNTRY_CODE":"US","REF_FRAME":"TEME","APOAPSIS":"548.359","OBJECT_TYPE":"PAYLOAD","PERIAPSIS":"546.088","TIME_SYSTEM":"UTC"}];
